ELEVATION-1             
1 62677U 25009BW  26068.73256216  .00027253  00000+0  76188-3 0  9999
2 62677  97.3895 153.1078 0003155 317.9798  42.1204 15.36649756121520
KUIPER-00200            
1 67772U 26030J   26068.67647234  .00025755  00000+0  70619-3 0  9990
2 67772  51.8819 218.9881 0001049 264.9914  95.0953 15.37115765  5095
